{
  "links" : {
    "next" : "https://api.nasa.gov/neo/rest/v1/feed?start_date=2003-01-16&end_date=2003-01-16&detailed=true&api_key=t0TVs3DtDT2H8Oy2Zy8m2eVrNsAVKAexjcZXUckd",
    "prev" : "https://api.nasa.gov/neo/rest/v1/feed?start_date=2003-01-14&end_date=2003-01-14&detailed=true&api_key=t0TVs3DtDT2H8Oy2Zy8m2eVrNsAVKAexjcZXUckd",
    "self" : "https://api.nasa.gov/neo/rest/v1/feed?start_date=2003-01-15&end_date=2003-01-15&detailed=true&api_key=t0TVs3DtDT2H8Oy2Zy8m2eVrNsAVKAexjcZXUckd"
  },
  "element_count" : 5,
  "near_earth_objects" : {
    "2003-01-15" : [ {
      "links" : {
        "self" : "https://api.nasa.gov/neo/rest/v1/neo/2208115?api_key=t0TVs3DtDT2H8Oy2Zy8m2eVrNsAVKAexjcZXUckd"
      },
      "neo_reference_id" : "2208115",
      "name" : "208115 (2000 CT101)",
      "nasa_jpl_url" : "http://ssd.jpl.nasa.gov/sbdb.cgi?sstr=2208115",
      "absolute_magnitude_h" : 20.7,
      "estimated_diameter" : {
        "kilometers" : {
          "estimated_diameter_min" : 0.1925550782,
          "estimated_diameter_max" : 0.4305662442
        },
        "meters" : {
          "estimated_diameter_min" : 192.5550781879,
          "estimated_diameter_max" : 430.566244241
        },
        "miles" : {
          "estimated_diameter_min" : 0.1196481415,
          "estimated_diameter_max" : 0.2675413778
        },
        "feet" : {
          "estimated_diameter_min" : 631.7424027221,
          "estimated_diameter_max" : 1412.6189567557
        }
      },
      "is_potentially_hazardous_asteroid" : true,
      "close_approach_data" : [ {
        "close_approach_date" : "2003-01-15",
        "epoch_date_close_approach" : 1042617600000,
        "relative_velocity" : {
          "kilometers_per_second" : "12.554365567",
          "kilometers_per_hour" : "45195.7160412241",
          "miles_per_hour" : "28082.8603368373"
        },
        "miss_distance" : {
          "astronomical" : "0.3102700065",
          "lunar" : "120.6950378418",
          "kilometers" : "46415732",
          "miles" : "28841400"
        },
        "orbiting_body" : "Earth"
      } ],
      "orbital_data" : {
        "orbit_id" : "29",
        "orbit_determination_date" : "2017-04-06 09:25:28",
        "orbit_uncertainty" : "0",
        "minimum_orbit_intersection" : ".0133526",
        "jupiter_tisserand_invariant" : "4.863",
        "epoch_osculation" : "2458000.5",
        "eccentricity" : ".3548090281849409",
        "semi_major_axis" : "1.299446707519344",
        "inclination" : "23.29340240797193",
        "ascending_node_longitude" : "135.5929068736933",
        "orbital_period" : "541.0484241548024",
        "perihelion_distance" : ".838391284046284",
        "perihelion_argument" : "292.3656795715029",
        "aphelion_distance" : "1.760502130992403",
        "perihelion_time" : "2458017.630424894569",
        "mean_anomaly" : "348.6018465506514",
        "mean_motion" : ".6653748240046594",
        "equinox" : "J2000"
      }
    }, {
      "links" : {
        "self" : "https://api.nasa.gov/neo/rest/v1/neo/2267720?api_key=t0TVs3DtDT2H8Oy2Zy8m2eVrNsAVKAexjcZXUckd"
      },
      "neo_reference_id" : "2267720",
      "name" : "267720 (2003 CA)",
      "nasa_jpl_url" : "http://ssd.jpl.nasa.gov/sbdb.cgi?sstr=2267720",
      "absolute_magnitude_h" : 18.9,
      "estimated_diameter" : {
        "kilometers" : {
          "estimated_diameter_min" : 0.4411182,
          "estimated_diameter_max" : 0.9863702813
        },
        "meters" : {
          "estimated_diameter_min" : 441.1181999969,
          "estimated_diameter_max" : 986.3702813054
        },
        "miles" : {
          "estimated_diameter_min" : 0.2740980571,
          "estimated_diameter_max" : 0.6129018881
        },
        "feet" : {
          "estimated_diameter_min" : 1447.2382352778,
          "estimated_diameter_max" : 3236.1230737181
        }
      },
      "is_potentially_hazardous_asteroid" : true,
      "close_approach_data" : [ {
        "close_approach_date" : "2003-01-15",
        "epoch_date_close_approach" : 1042617600000,
        "relative_velocity" : {
          "kilometers_per_second" : "22.554767577",
          "kilometers_per_hour" : "81197.163277141",
          "miles_per_hour" : "50452.7595929546"
        },
        "miss_distance" : {
          "astronomical" : "0.1304304922",
          "lunar" : "50.7374610901",
          "kilometers" : "19512124",
          "miles" : "12124272"
        },
        "orbiting_body" : "Earth"
      } ],
      "orbital_data" : {
        "orbit_id" : "54",
        "orbit_determination_date" : "2017-04-06 09:24:35",
        "orbit_uncertainty" : "0",
        "minimum_orbit_intersection" : ".0497275",
        "jupiter_tisserand_invariant" : "4.440",
        "epoch_osculation" : "2458000.5",
        "eccentricity" : ".7197162846500615",
        "semi_major_axis" : "1.379169202107509",
        "inclination" : "21.15590087306011",
        "ascending_node_longitude" : "126.2246413071936",
        "orbital_period" : "591.5953511267979",
        "perihelion_distance" : ".3865586680629028",
        "perihelion_argument" : "234.7601760082631",
        "aphelion_distance" : "2.371779736152115",
        "perihelion_time" : "2457928.689609322947",
        "mean_anomaly" : "43.6983498847645",
        "mean_motion" : ".6085240516415762",
        "equinox" : "J2000"
      }
    }, {
      "links" : {
        "self" : "https://api.nasa.gov/neo/rest/v1/neo/3005969?api_key=t0TVs3DtDT2H8Oy2Zy8m2eVrNsAVKAexjcZXUckd"
      },
      "neo_reference_id" : "3005969",
      "name" : "(1994 WR12)",
      "nasa_jpl_url" : "http://ssd.jpl.nasa.gov/sbdb.cgi?sstr=3005969",
      "absolute_magnitude_h" : 22.3,
      "estimated_diameter" : {
        "kilometers" : {
          "estimated_diameter_min" : 0.0921626549,
          "estimated_diameter_max" : 0.2060819612
        },
        "meters" : {
          "estimated_diameter_min" : 92.1626548503,
          "estimated_diameter_max" : 206.0819612321
        },
        "miles" : {
          "estimated_diameter_min" : 0.057267201,
          "estimated_diameter_max" : 0.1280533543
        },
        "feet" : {
          "estimated_diameter_min" : 302.370924539,
          "estimated_diameter_max" : 676.1219416887
        }
      },
      "is_potentially_hazardous_asteroid" : false,
      "close_approach_data" : [ {
        "close_approach_date" : "2003-01-15",
        "epoch_date_close_approach" : 1042617600000,
        "relative_velocity" : {
          "kilometers_per_second" : "17.5083236739",
          "kilometers_per_hour" : "63029.9652260742",
          "miles_per_hour" : "39164.3692261682"
        },
        "miss_distance" : {
          "astronomical" : "0.2643728616",
          "lunar" : "102.8410415649",
          "kilometers" : "39549616",
          "miles" : "24574992"
        },
        "orbiting_body" : "Earth"
      } ],
      "orbital_data" : {
        "orbit_id" : "22",
        "orbit_determination_date" : "2017-04-06 09:18:13",
        "orbit_uncertainty" : "1",
        "minimum_orbit_intersection" : ".00192739",
        "jupiter_tisserand_invariant" : "7.571",
        "epoch_osculation" : "2458000.5",
        "eccentricity" : ".3973770181899618",
        "semi_major_axis" : ".7567647400431536",
        "inclination" : "6.858816002170841",
        "ascending_node_longitude" : "62.70114394746762",
        "orbital_period" : "240.4582931538835",
        "perihelion_distance" : ".4560438241735036",
        "perihelion_argument" : "206.0005637850943",
        "aphelion_distance" : "1.057485655912804",
        "perihelion_time" : "2458012.080467374151",
        "mean_anomaly" : "342.6624060247051",
        "mean_motion" : "1.497141126962981",
        "equinox" : "J2000"
      }
    } ]
  }
}